satname,norad_id,inclination_deg,eccentricity,mean_motion_rev_per_day,perigee_km,apogee_km,l1,l2
STARLINK-1298,45413,53.0515,0.0010163,15.4198473,433.32275144887353,447.1818095003664,1 45413U 20019BF  25261.03334992  .00073599  00000+0  16916-2 0  9995,2 45413  53.0515 180.3559 0010163  87.2604 272.9563 15.41984730304099
STARLINK-1309,45414,53.0557,0.0002422,15.06346512,545.6981366789269,549.0528549318942,1 45414U 20019BG  25261.02698628  .00013601  00000+0  93150-3 0  9998,2 45414  53.0557 191.7313 0002422 112.5605 247.5641 15.06346512303828
STARLINK-1316,45415,53.0549,0.0001432,15.06399054,546.2227469648615,548.2061676222293,1 45415U 20019BH  25261.18548860 -.00001586  00000+0 -87614-4 0  9998,2 45415  53.0549 191.0199 0001432  94.8280 265.2873 15.06399054303885
STARLINK-1318,45416,53.0534,0.0001108,15.5524861,400.6788710238834,402.18122308151123,1 45416U 20019BJ  25261.25299385  .00034838  00000+0  51055-3 0  9995,2 45416  53.0534 174.1522 0001108 123.1092 237.0025 15.55248610304117
STARLINK-1286,45417,53.0515,0.0001393,15.06396249,546.2583515813349,548.1877568924456,1 45417U 20019BK  25260.29441137 -.00002832  00000+0 -17132-3 0  9992,2 45417  53.0515 225.0226 0001393  93.2136 266.9012 15.06396249303581
STARLINK-1308,45419,53.0501,0.0001579,15.0639673,546.1280659156528,548.3150941552285,1 45419U 20019BM  25259.62725014 -.00000109  00000+0  11597-4 0  9992,2 45419  53.0501 228.0164 0001579  88.3197 271.7973 15.06396730303237
STARLINK-1329,45531,53.0548,0.0001496,15.06398595,546.1798312758037,548.251896852732,1 45531U 20025A   25260.98921326 -.00002172  00000+0 -12698-3 0  9994,2 45531  53.0548 161.8992 0001496  71.2895 288.8256 15.06398595299069
STARLINK-1338,45532,53.0551,0.000151,15.0640405,546.1534195414542,548.2448710573344,1 45532U 20025B   25261.00026698 -.00001035  00000+0 -50590-4 0  9998,2 45532  53.0551 161.8495 0001510  89.4638 270.6524 15.06404050299066
STARLINK-1350,45535,53.0736,0.000289,15.30933811,471.0449314700727,475.0049030582504,1 45535U 20025E   25260.82954088  .00009441  00000+0  32314-3 0  9993,2 45535  53.0736 121.8297 0002890 113.2549 246.8756 15.30933811299633
STARLINK-1362,45538,53.0542,0.0001313,15.063881,546.3387269100258,548.157333018894,1 45538U 20025H   25260.96612352 -.00000221  00000+0  40511-5 0  9994,2 45538  53.0542 161.7289 0001313 107.3406 252.7727 15.06388100299069
STARLINK-1368,45540,53.0564,0.0001454,15.06399324,546.2066838001201,548.220575763261,1 45540U 20025K   25261.03713077 -.00001504  00000+0 -82080-4 0  9994,2 45540  53.0564 161.6885 0001454 108.6516 251.4631 15.06399324299069
STARLINK-1371,45542,53.0543,0.0001577,15.06406761,546.0987123247205,548.2829607243602,1 45542U 20025M   25261.14032461  .00001649  00000+0  12955-3 0  9990,2 45542  53.0543 161.2223 0001577 118.1849 241.9300 15.06406761299084
STARLINK-1372,45543,53.0539,0.0001398,15.06392321,546.2669260486655,548.2032600858865,1 45543U 20025N   25261.11083927 -.00002255  00000+0 -13258-3 0  9994,2 45543  53.0539 161.3548 0001398 101.2983 258.8163 15.06392321298173
STARLINK-1373,45544,53.0534,0.0001455,15.06395634,546.2172989696328,548.2325792939191,1 45544U 20025P   25260.99658878 -.00001983  00000+0 -11430-3 0  9990,2 45544  53.0534 161.8702 0001455  83.2642 276.8512 15.06395634299068
STARLINK-1294,45551,53.0511,0.0005154,15.50313334,412.30889748102254,419.3120985619835,1 45551U 20025W   25261.00266901  .00122014  00000+0  20914-2 0  9996,2 45551  53.0511 110.2172 0005154 188.6905 171.4014 15.50313334299795
STARLINK-1323,45553,53.037,0.0006081,15.87735928,304.5658689967104,312.69831756796066,1 45553U 20025Y   25261.25011574  .00114962  00000+0  41646-3 0  9998,2 45553  53.0370  92.7111 0006081  87.4099 194.4183 15.87735928  5959
STARLINK-1325,45554,53.06,7.24e-05,15.4599598,427.9603561369995,428.94595039119304,1 45554U 20025Z   25260.79601962  .00049806  00000+0  10071-2 0  9994,2 45554  53.0600 102.8744 0000724 234.9854 125.1084 15.45995980299885
STARLINK-1327,45555,53.0531,0.0001714,15.06406041,546.0060416358083,548.3800447746189,1 45555U 20025AA  25260.90258795  .00008791  00000+0  60824-3 0  9990,2 45555  53.0531 142.2900 0001714  87.9300 272.1886 15.06406041299327
STARLINK-1336,45557,53.0397,0.0007657,15.82754873,317.52314422470863,327.7847354699916,1 45557U 20025AC  25261.25011574  .00180830  00000+0  82382-3 0  9991,2 45557  53.0397  98.1479 0007657 106.4742 340.1699 15.82754873  6033
STARLINK-1342,45558,53.0445,0.000409,15.92334796,293.02143409251585,298.48067452093983,1 45558U 20025AD  25261.25011574  .00285462  41888-4  83443-3 0  9992,2 45558  53.0445  94.9569 0004090 102.9061 286.1543 15.92334796  5962
STARLINK-1355,45563,53.0302,0.0009808,16.10340191,239.41335682710633,252.40708785845345,1 45563U 20025AJ  25261.33512737  .00780135  34659-3  78674-3 0  9998,2 45563  53.0302  23.3834 0009808 327.8610  32.1824 16.10340191301025
STARLINK-1356,45564,53.0533,0.0001349,15.06388174,546.3135687521944,548.1820375720872,1 45564U 20025AK  25260.97262721  .00001499  00000+0  11955-3 0  9990,2 45564  53.0533 141.9708 0001349  93.1436 266.9707 15.06388174299334
STARLINK-1357,45565,53.0683,0.0008772,15.24745227,485.52448464872214,497.57666452958165,1 45565U 20025AL  25261.03970247  .00044066  00000+0  17578-2 0  9991,2 45565  53.0683 133.4068 0008772 100.9229 259.2756 15.24745227299469
STARLINK-1361,45567,53.0535,0.0001335,15.06399698,546.2879493688843,548.137017680986,1 45567U 20025AN  25260.99106196 -.00000821  00000+0 -36224-4 0  9995,2 45567  53.0535 141.8945 0001335  90.7475 269.3667 15.06399698299348
STARLINK-1363,45568,53.0524,0.0001337,15.0639309,546.3068142402844,548.1586581077363,1 45568U 20025AP  25261.07218057  .00009365  00000+0  64687-3 0  9999,2 45568  53.0524 141.7717 0001337  82.4768 277.6373 15.06393090299344
STARLINK-1366,45569,53.0543,0.0001464,15.06398413,546.2025501280159,548.2302936099395,1 45569U 20025AQ  25260.99474453 -.00000059  00000+0  14954-4 0  9999,2 45569  53.0543 141.8757 0001464 101.6595 258.4558 15.06398413299339
STARLINK-1376,45570,53.0548,0.000141,15.06387546,546.2732483889085,548.2262074461814,1 45570U 20025AR  25261.05372020  .00000294  00000+0  38633-4 0  9996,2 45570  53.0548 141.6153 0001410 106.9363 253.1780 15.06387546299341
STARLINK-1320,45572,53.0614,0.0008839,15.34865851,455.2735879345455,467.36437822143125,1 45572U 20025AT  25260.94726778  .00076609  00000+0  22199-2 0  9999,2 45572  53.0614  95.3857 0008839 158.6183 201.5189 15.34865851300006
STARLINK-1321,45573,53.0542,0.0001565,15.06391349,546.1542509354049,548.3218933329827,1 45573U 20025AU  25261.03989595  .00000320  00000+0  40392-4 0  9993,2 45573  53.0542 131.6703 0001565  80.8441 279.2725 15.06391349299182
STARLINK-1328,45576,53.0545,0.0001808,15.5366946,404.7965287419538,407.2496810358816,1 45576U 20025AX  25261.04038921  .00106411  00000+0  16220-2 0  9994,2 45576  53.0545 124.7800 0001808 147.8664 212.2457 15.53669460299598
STARLINK-1331,45578,53.0545,0.0001307,15.06388765,546.340844252124,548.1511393661822,1 45578U 20025AZ  25260.95143531  .00000193  00000+0  31842-4 0  9998,2 45578  53.0545 132.0747 0001307 101.7671 258.3465 15.06388765299485
STARLINK-1333,45580,53.0536,0.0001298,15.06395321,546.3269863322794,548.124810540714,1 45580U 20025BB  25261.09058556  .00007660  00000+0  53264-3 0  9996,2 45580  53.0536 141.4473 0001298  87.8881 272.2256 15.06395321299359
STARLINK-1335,45581,53.0544,0.0001581,15.06398179,546.1222405572435,548.3120375360104,1 45581U 20025BC  25260.96249798  .00003029  00000+0  22217-3 0  9991,2 45581  53.0544 132.0213 0001581  81.5698 278.5470 15.06398179299473
STARLINK-1337,45582,53.0538,0.0001458,15.06399248,546.2041465551447,548.2235788667122,1 45582U 20025BD  25261.05095136  .00004883  00000+0  34648-3 0  9998,2 45582  53.0538 131.6246 0001458  92.4911 267.6245 15.06399248299488
STARLINK-1347,45586,53.0601,0.0008046,15.24071212,488.046841573504,499.1048018461988,1 45586U 20025BH  25260.88565167  .00043284  00000+0  17623-2 0  9999,2 45586  53.0601 124.4106 0008046 106.7473 253.4407 15.24071212299560
STARLINK-1349,45587,53.0321,0.0007216,16.35818339,172.21984067470567,181.68014222076363,1 45587U 20025BJ  25261.18575360  .06166527  12318-4  72267-3 0  9998,2 45587  53.0321  74.0359 0007216 322.9874  37.0672 16.35818339300302
STARLINK-1360,45588,53.0489,0.0001677,15.6607566,369.01526056892453,371.2786350050128,1 45588U 20025BK  25260.73350842  .00058045  00000+0  55712-3 0  9990,2 45588  53.0489  57.2652 0001677 327.9793  32.1120 15.66075660300508
STARLINK-1364,45589,53.0559,0.0001602,15.06400568,546.1003765405321,548.3192576607316,1 45589U 20025BL  25260.92193708 -.00000536  00000+0 -17091-4 0  9991,2 45589  53.0559 132.2038 0001602 117.6556 242.4596 15.06400568299466
STARLINK-1365,45590,53.0544,0.0001321,15.06398068,546.3026399196388,548.1323185730553,1 45590U 20025BM  25261.13663863  .00002489  00000+0  18594-3 0  9996,2 45590  53.0544 161.2390 0001321  93.2413 266.8727 15.06398068299090
STARLINK-1443,45660,53.0542,0.0001356,15.06391286,546.2991843360114,548.1773461079392,1 45660U 20035D   25260.92286546 -.00001399  00000+0 -75093-4 0  9999,2 45660  53.0542 122.2049 0001356 102.0684 258.0457 15.06391286292698
STARLINK-1446,45663,53.0288,0.0007165,15.28968264,473.98221623287463,483.8083434899163,1 45663U 20035G   25260.85415572  .00051712  00000+0  18121-2 0  9996,2 45663  53.0288  93.1545 0007165 112.9904 247.1851 15.28968264293096
STARLINK-1448,45665,53.0538,0.0001442,15.06393451,546.2329915963555,548.2302679091763,1 45665U 20035J   25260.99289862 -.00000697  00000+0 -27910-4 0  9990,2 45665  53.0538 121.8818 0001442  89.1076 271.0078 15.06393451292693
STARLINK-1451,45668,53.0535,0.0001316,15.06395194,546.314909866589,548.137665483906,1 45668U 20035M   25260.99662760  .00001422  00000+0  11438-3 0  9997,2 45668  53.0535 122.1854 0001316  84.2413 275.8726 15.06395194292708
